EOSSAT-1                
1 55053U 23001AW  26068.73619225  .00007695  00000+0  24844-3 0  9992
2 55053  97.3357 130.2294 0011263 110.3168 249.9285 15.32339828176689
STARLINK-30714          
1 57939U 23148E   26068.26817326 -.00000932  00000+0 -19342-4 0  9996
2 57939  53.1611  26.4425 0001068  87.7795 272.3328 15.30192407138352
